IRIDIUM 119             
1 42959U 17061E   24359.46720547  .00000417  00000+0  14176-3 0  9995
2 42959  86.3971 250.7467 0001924  74.3244 285.8164 14.34217752377452
IRIDIUM 107             
1 42960U 17061F   24359.55599941  .00000645  00000+0  22335-3 0  9998
2 42960  86.3970 250.7278 0001591  85.7578 274.3800 14.34221096377477
IRIDIUM 132             
1 42961U 17061G   24359.42280988  .00000534  00000+0  18344-3 0  9995
2 42961  86.3972 250.7654 0002146  80.5501 279.5937 14.34219177377457
IRIDIUM 136             
1 42962U 17061H   24359.45452135  .00000071  00000+0  18213-4 0  9996
2 42962  86.3969 250.7574 0001805  75.2852 284.8543 14.34217853377479
IRIDIUM 139             
1 42963U 17061J   24359.46086238  .00000455  00000+0  15533-3 0  9992
2 42963  86.3971 250.8077 0001692  83.8210 276.3179 14.34218103377480
IRIDIUM 125             
1 42964U 17061K   24359.44816685  .00000555  00000+0  19118-3 0  9992
2 42964  86.3971 250.8642 0001816  63.9698 296.1684 14.34222179377496
IRIDIUM 135             
1 43070U 17083A   24359.56184209 -.00000052  00000+0 -25454-4 0  9993
2 43070  86.3992 187.5378 0002095  94.3983 265.7452 14.34218065366802
IRIDIUM 138             
1 43071U 17083B   24359.51744326  .00000103  00000+0  29880-4 0  9993
2 43071  86.3975 187.2499 0002177  72.3020 287.8414 14.34218092366784
